NORAD_CAT_ID,OBJECT_NAME,OBJECT_TYPE,EPOCH,MEAN_MOTION,ECCENTRICITY,INCLINATION,RA_OF_ASC_NODE,ARG_OF_PERICENTER,MEAN_ANOMALY,BSTAR,MEAN_MOTION_DOT,MEAN_MOTION_DDOT,TLE_LINE0,TLE_LINE1,TLE_LINE2,SEMIMAJOR_AXIS,PERIOD,APOGEE,PERIGEE,DECAYED
52122.0,STARLINK-3726,PAYLOAD,2023-01-11 19:31:34,15.08838209,0.0001896,53.2158,214.5927,45.8904,314.2244,-7.7886e-05,-1.527e-05,0.0,0 STARLINK-3726,1 52122U 22029AL  23011.81359569 -.00001527  00000-0 -77886-4 0  9997,2 52122  53.2158 214.5927 0001896  45.8904 314.2244 15.08838209 46747,6917.886,95.438,541.062,538.439,0.0
52122.0,STARLINK-3726,PAYLOAD,2023-01-12 19:22:21,15.08838523,0.0001955,53.2152,210.1331,48.7318,311.3842,1.302e-05,-8.1e-07,0.0,0 STARLINK-3726,1 52122U 22029AL  23012.80719805 -.00000081  00000-0  13020-4 0  9993,2 52122  53.2152 210.1331 0001955  48.7318 311.3842 15.08838523 46896,6917.885,95.438,541.102,538.3969999999998,0.0
52122.0,STARLINK-3726,PAYLOAD,2023-01-12 22:33:08,15.08845675,0.0001958,53.2151,209.5386,47.7327,312.3831,-4.01e-05,-9.26e-06,0.0,0 STARLINK-3726,1 52122U 22029AL  23012.93967614 -.00000926  00000-0 -40100-4 0  9998,2 52122  53.2151 209.5386 0001958  47.7327 312.3831 15.08845675 46917,6917.863,95.437,541.0830000000002,538.374,0.0
52122.0,STARLINK-3726,PAYLOAD,2023-01-13 12:51:36,15.08835813,0.0001955,53.215,206.8621,50.2929,309.8235,0.00013241,1.82e-05,0.0,0 STARLINK-3726,1 52122U 22029AL  23013.53583961  .00001820  00000-0  13241-3 0  9991,2 52122  53.2150 206.8621 0001955  50.2929 309.8235 15.08835813 47005,6917.893,95.438,541.111,538.406,0.0
52122.0,STARLINK-3726,PAYLOAD,2023-01-13 19:13:09,15.08837825,0.0001952,53.215,205.6724,51.1314,308.9852,0.00016719,2.374e-05,0.0,0 STARLINK-3726,1 52122U 22029AL  23013.80079875  .00002374  00000-0  16719-3 0  9993,2 52122  53.2150 205.6724 0001952  51.1314 308.9852 15.08837825 47045,6917.887,95.438,541.102,538.4019999999999,0.0
52122.0,STARLINK-3726,PAYLOAD,2023-01-14 19:03:56,15.08841977,0.0001964,53.2142,201.2106,56.7021,303.4159,0.00015516,2.182e-05,0.0,0 STARLINK-3726,1 52122U 22029AL  23014.79440123  .00002182  00000-0  15516-3 0  9991,2 52122  53.2142 201.2106 0001964  56.7021 303.4159 15.08841977 47190,6917.874,95.437,541.0980000000001,538.381,0.0
52122.0,STARLINK-3726,PAYLOAD,2023-01-15 10:57:47,15.08837349,0.0001985,53.2132,198.2369,56.3104,303.8077,4.0703e-05,3.6000000000000003e-06,0.0,0 STARLINK-3726,1 52122U 22029AL  23015.45680417  .00000360  00000-0  40703-4 0  9990,2 52122  53.2132 198.2369 0001985  56.3104 303.8077 15.08837349 47298,6917.888000000001,95.438,541.127,538.38,0.0
52122.0,STARLINK-3726,PAYLOAD,2023-01-15 12:33:11,15.08836315,0.0001988,53.2131,197.9395,56.766000000000005,303.3522,7.5388e-06,-1.68e-06,0.0,0 STARLINK-3726,1 52122U 22029AL  23015.52304457 -.00000168  00000-0  75388-5 0  9990,2 52122  53.2131 197.9395 0001988  56.7660 303.3522 15.08836315 47300,6917.892,95.438,541.132,538.381,0.0
52122.0,STARLINK-3726,PAYLOAD,2023-01-15 18:54:43,15.08840364,0.0001843,53.2153,196.7508,55.4228,304.6937,5.8124e-05,6.37e-06,0.0,0 STARLINK-3726,1 52122U 22029AL  23015.78800267  .00000637  00000-0  58124-4 0  9996,2 52122  53.2153 196.7508 0001843  55.4228 304.6937 15.08840364 47340,6917.879,95.438,541.019,538.469,0.0
52122.0,STARLINK-3726,PAYLOAD,2023-01-16 12:23:58,15.08838593,0.0001916,53.2156,193.4808,61.5051,298.6134,5.4227e-05,5.75e-06,0.0,0 STARLINK-3726,1 52122U 22029AL  23016.51664507  .00000575  00000-0  54227-4 0  9994,2 52122  53.2156 193.4808 0001916  61.5051 298.6134 15.08838593 47457,6917.885,95.438,541.075,538.424,0.0
52122.0,STARLINK-3726,PAYLOAD,2023-01-16 18:45:30,15.08842333,0.0001881,53.2168,192.2919,61.2073,298.9108,7.3204e-05,8.77e-06,0.0,0 STARLINK-3726,1 52122U 22029AL  23016.78160254  .00000877  00000-0  73204-4 0  9994,2 52122  53.2168 192.2919 0001881  61.2073 298.9108 15.08842333 47497,6917.8730000000005,95.437,541.04,538.437,0.0
52122.0,STARLINK-3726,PAYLOAD,2023-01-16 21:56:16,15.08844489,0.0001896,53.2165,191.6964,62.4647,297.6538,8.6465e-05,1.088e-05,0.0,0 STARLINK-3726,1 52122U 22029AL  23016.91408066  .00001088  00000-0  86465-4 0  9993,2 52122  53.2165 191.6964 0001896  62.4647 297.6538 15.08844489 47513,6917.866999999999,95.437,541.043,538.42,0.0
52122.0,STARLINK-3726,PAYLOAD,2023-01-17 10:39:22,15.08832866,0.0001774999999999,53.2171,189.3176,58.3669,301.7496,8.544200000000001e-05,1.072e-05,0.0,0 STARLINK-3726,1 52122U 22029AL  23017.44400948  .00001072  00000-0  85442-4 0  9990,2 52122  53.2171 189.3176 0001775  58.3669 301.7496 15.08832866 47597,6917.901999999999,95.438,540.995,538.539,0.0
52122.0,STARLINK-3726,PAYLOAD,2023-01-17 12:14:45,15.0883117,0.0001764999999999,53.2173,189.02,60.4246,299.6922,3.5189e-05,2.72e-06,0.0,0 STARLINK-3726,1 52122U 22029AL  23017.51025249  .00000272  00000-0  35189-4 0  9999,2 52122  53.2173 189.0200 0001765  60.4246 299.6922 15.08831170 47606,6917.906999999999,95.438,540.993,538.5509999999999,0.0
52122.0,STARLINK-3726,PAYLOAD,2023-01-18 12:05:33,15.08832104,0.0001878,53.2191,184.5605,70.2739,289.8456,4.6772e-06,-2.14e-06,0.0,0 STARLINK-3726,1 52122U 22029AL  23018.50385739 -.00000214  00000-0  46772-5 0  9990,2 52122  53.2191 184.5605 0001878  70.2739 289.8456 15.08832104 47753,6917.905,95.438,541.069,538.47,0.0
52122.0,STARLINK-3726,PAYLOAD,2023-01-18 18:27:05,15.08836323,0.0001802,53.2176,183.3702,67.2792,292.8391,1.8247e-05,2e-08,0.0,0 STARLINK-3726,1 52122U 22029AL  23018.76881528  .00000002  00000-0  18247-4 0  9994,2 52122  53.2176 183.3702 0001802  67.2792 292.8391 15.08836323 47796,6917.892,95.438,541.003,538.51,0.0
52122.0,STARLINK-3726,PAYLOAD,2023-01-19 10:20:56,15.08837134,0.000183,53.2181,180.3968,68.1105,292.0081,0.00013011,1.783e-05,0.0,0 STARLINK-3726,1 52122U 22029AL  23019.43121396  .00001783  00000-0  13011-3 0  9999,2 52122  53.2181 180.3968 0001830  68.1105 292.0081 15.08837134 47892,6917.889,95.438,541.02,538.488,0.0
52122.0,STARLINK-3726,PAYLOAD,2023-01-19 16:42:28,15.08843911,0.0001675,53.2171,179.2072,66.7453,293.3715,0.00018197,2.61e-05,0.0,0 STARLINK-3726,1 52122U 22029AL  23019.69616790  .00002610  00000-0  18197-3 0  9994,2 52122  53.2171 179.2072 0001675  66.7453 293.3715 15.08843911 47934,6917.868,95.437,540.8919999999999,538.575,0.0
52122.0,STARLINK-3726,PAYLOAD,2023-01-20 03:50:11,15.08813119,0.0001476999999999,53.2168,177.1257,74.1814,285.9341,0.0006315,9.769e-05,0.0,0 STARLINK-3726,1 52122U 22029AL  23020.15985183  .00009769  00000-0  63150-3 0  9993,2 52122  53.2168 177.1257 0001477  74.1814 285.9341 15.08813119 48004,6917.963000000001,95.439,540.849,538.806,0.0
52122.0,STARLINK-3726,PAYLOAD,2023-01-20 10:11:43,15.08840731,0.0001705,53.2169,175.9368,69.3764,290.7411,0.0001648,2.336e-05,0.0,0 STARLINK-3726,1 52122U 22029AL  23020.42481048  .00002336  00000-0  16480-3 0  9991,2 52122  53.2169 175.9368 0001705  69.3764 290.7411 15.08840731 48044,6917.878000000001,95.438,540.923,538.564,0.0
52122.0,STARLINK-3726,PAYLOAD,2023-01-20 16:33:13,15.08939138,0.0001248,53.2169,174.7482,60.5179,299.5938,-0.0012622,-0.00020374,0.0,0 STARLINK-3726,1 52122U 22029AL  23020.68973488 -.00020374  00000-0 -12622-2 0  9990,2 52122  53.2169 174.7482 0001248  60.5179 299.5938 15.08939138 48088,6917.576999999999,95.431,540.306,538.5790000000001,0.0
52122.0,STARLINK-3726,PAYLOAD,2023-01-21 03:40:57,15.08849909,0.0001764999999999,53.2162,172.6667,59.2163,300.9003,0.00013493,1.861e-05,0.0,0 STARLINK-3726,1 52122U 22029AL  23021.15344365  .00001861  00000-0  13493-3 0  9995,2 52122  53.2162 172.6667 0001765  59.2163 300.9003 15.08849909 48159,6917.85,95.437,540.936,538.494,0.0
52122.0,STARLINK-3726,PAYLOAD,2023-01-21 10:02:30,15.08837924,0.0001527,53.2161,171.4771,68.1932,291.9222,-1.143e-05,-4.7e-06,0.0,0 STARLINK-3726,1 52122U 22029AL  23021.41841369 -.00000470  00000-0 -11430-4 0  9997,2 52122  53.2161 171.4771 0001527  68.1932 291.9222 15.08837924 48190,6917.887,95.438,540.808,538.695,0.0
52122.0,STARLINK-3726,PAYLOAD,2023-01-21 16:24:02,15.08844591,0.0001416,53.2167,170.2869,71.7959,288.3187,5.4148e-05,5.74e-06,0.0,0 STARLINK-3726,1 52122U 22029AL  23021.68336775  .00000574  00000-0  54148-4 0  9992,2 52122  53.2167 170.2869 0001416  71.7959 288.3187 15.08844591 48230,6917.866,95.437,540.711,538.752,0.0
52122.0,STARLINK-3726,PAYLOAD,2023-01-22 19:25:35,15.08848989,0.000151,53.2164,165.2311,70.548,289.5675,4.9515e-05,5e-06,0.0,0 STARLINK-3726,1 52122U 22029AL  23022.80944323  .00000500  00000-0  49515-4 0  9992,2 52122  53.2164 165.2311 0001510  70.5480 289.5675 15.08848989 48403,6917.853,95.437,540.763,538.673,0.0
52122.0,STARLINK-3726,PAYLOAD,2023-01-23 09:44:04,15.08832298,0.0001374,53.2162,162.5565,78.4045,281.7102,9.4873e-05,1.222e-05,0.0,0 STARLINK-3726,1 52122U 22029AL  23023.40561256  .00001222  00000-0  94873-4 0  9998,2 52122  53.2162 162.5565 0001374  78.4045 281.7102 15.08832298 48498,6917.904,95.438,540.719,538.818,0.0
52122.0,STARLINK-3726,PAYLOAD,2023-01-23 19:16:23,15.08843365,0.0001486999999999,53.2163,160.7707,84.8611,275.2551,8.979e-05,1.141e-05,0.0,0 STARLINK-3726,1 52122U 22029AL  23023.80304675  .00001141  00000-0  89790-4 0  9994,2 52122  53.2163 160.7707 0001487  84.8611 275.2551 15.08843365 48552,6917.87,95.437,540.764,538.706,0.0
52122.0,STARLINK-3726,PAYLOAD,2023-01-24 01:37:56,15.08835555,0.0001530999999999,53.2149,159.5811,83.00299999999999,277.1136,4.5286e-06,-2.16e-06,0.0,0 STARLINK-3726,1 52122U 22029AL  23024.06801409 -.00000216  00000-0  45286-5 0  9996,2 52122  53.2149 159.5811 0001531  83.0030 277.1136 15.08835555 48590,6917.894,95.438,540.818,538.7,0.0
52122.0,STARLINK-3726,PAYLOAD,2023-01-24 15:56:24,15.08843293,0.0001161999999999,53.2161,156.9052,91.6949,268.4176,9.2046e-05,1.178e-05,0.0,0 STARLINK-3726,1 52122U 22029AL  23024.66416878  .00001178  00000-0  92046-4 0  9996,2 52122  53.2161 156.9052 0001162  91.6949 268.4176 15.08843293 48681,6917.87,95.437,540.539,538.931,0.0
